0 FENGYUN 1C DEB
1 30646U 99025APD 13282.09844961  .00000808  00000-0  54266-3 0  7126
2 30646 099.1244 330.1200 0054545 237.5468 151.0655 14.03001669341536
0 FENGYUN 1C DEB
1 30646U 99025APD 13283.10172296  .00000850  00000-0  56952-3 0  7136
2 30646 099.1243 331.1255 0054634 234.7756 178.4015 14.03003160341670
0 FENGYUN 1C DEB
1 30646U 99025APD 13286.09683067  .00001055  00000-0  69952-3 0  7154
2 30646 099.1239 334.1275 0054897 226.5356 186.1041 14.03007338342099
0 FENGYUN 1C DEB
1 30646U 99025APD 13287.67906591  .00001219  00000-0  80327-3 0  7161
2 30646 099.1236 335.7134 0054998 222.2010 257.6669 14.03010394342310
0 FENGYUN 1C DEB
1 30646U 99025APD 13289.08766072  .00001431  00000-0  93811-3 0  7175
2 30646 099.1233 337.1254 0055060 218.3601 172.2060 14.03015381342519
0 FENGYUN 1C DEB
1 30646U 99025APD 13290.09247209  .00001435  00000-0  94061-3 0  7187
2 30646 099.1232 338.1324 0055111 215.5904 207.3560 14.03017608342653
0 FENGYUN 1C DEB
1 30646U 99025APD 13291.37615894  .00001492  00000-0  97645-3 0  7193
2 30646 099.1232 339.4189 0055177 212.0805 211.0496 14.03021054342830
0 FENGYUN 1C DEB
1 30646U 99025APD 13292.60642597  .00001623  00000-0  10593-2 0  7204
2 30646 099.1234 340.6517 0055229 208.7375 304.9226 14.03024224343008
0 FENGYUN 1C DEB
1 30646U 99025APD 13293.67002690  .00001643  00000-0  10723-2 0  7214
2 30646 099.1235 341.7174 0055265 205.8165 277.0358 14.03027614343153
0 FENGYUN 1C DEB
1 30646U 99025APD 13295.07791043  .00001667  00000-0  10875-2 0  7222
2 30646 099.1236 343.1283 0055291 201.9501 188.0951 14.03032428343352
